NORAD_CAT_ID,OBJECT_NAME,OBJECT_TYPE,EPOCH,MEAN_MOTION,ECCENTRICITY,INCLINATION,RA_OF_ASC_NODE,ARG_OF_PERICENTER,MEAN_ANOMALY,BSTAR,MEAN_MOTION_DOT,MEAN_MOTION_DDOT,TLE_LINE0,TLE_LINE1,TLE_LINE2,SEMIMAJOR_AXIS,PERIOD,APOGEE,PERIGEE,DECAYED
53776.0,STARLINK-4708,PAYLOAD,2024-06-05 11:49:03,15.08835746,0.0001305,53.2173,282.22,87.8263,272.2879,6.9121e-05,8.12e-06,0.0,0 STARLINK-4708,1 53776U 22111D   24157.49240626  .00000812  00000-0  69121-4 0  9991,2 53776  53.2173 282.2200 0001305  87.8263 272.2879 15.08835746 95862,6917.893,95.438,540.661,538.856,0.0
53776.0,STARLINK-4708,PAYLOAD,2024-06-05 14:59:50,15.08835001,0.0001308,53.2173,281.626,84.6042,275.51,6.0696e-05,6.78e-06,0.0,0 STARLINK-4708,1 53776U 22111D   24157.62488754  .00000678  00000-0  60696-4 0  9990,2 53776  53.2173 281.6260 0001308  84.6042 275.5100 15.08835001 96974,6917.896,95.438,540.666,538.856,0.0
53776.0,STARLINK-4708,PAYLOAD,2024-06-05 18:10:36,15.08835553,0.0001292,53.2182,281.0314,84.2569,275.8571,4.084e-05,3.62e-06,0.0,0 STARLINK-4708,1 53776U 22111D   24157.75736825  .00000362  00000-0  40840-4 0  9998,2 53776  53.2182 281.0314 0001292  84.2569 275.8571 15.08835553 96999,6917.894,95.438,540.653,538.865,0.0
53776.0,STARLINK-4708,PAYLOAD,2024-06-06 14:50:37,15.08836161,0.0001294,53.2178,277.1659,83.2375,276.8764,3.1664e-05,2.16e-06,0.0,0 STARLINK-4708,1 53776U 22111D   24158.61849070  .00000216  00000-0  31664-4 0  9993,2 53776  53.2178 277.1659 0001294  83.2375 276.8764 15.08836161 97125,6917.892,95.438,540.652,538.862,0.0
53776.0,STARLINK-4708,PAYLOAD,2024-06-07 14:41:25,15.08826072,0.0001177,53.2169,272.7054,79.5797,280.5328,-2.8139e-05,-7.35e-06,0.0,0 STARLINK-4708,1 53776U 22111D   24159.61210248 -.00000735  00000-0 -28139-4 0  9994,2 53776  53.2169 272.7054 0001177  79.5797 280.5328 15.08826072 97275,6917.923,95.438,540.602,538.974,0.0
53776.0,STARLINK-4708,PAYLOAD,2024-06-08 14:32:13,15.08826383,0.0001027,53.2163,268.2454,77.9929,282.1178,-1.3104e-06,-3.09e-06,0.0,0 STARLINK-4708,1 53776U 22111D   24160.60571090 -.00000309  00000-0 -13104-5 0  9994,2 53776  53.2163 268.2454 0001027  77.9929 282.1178 15.08826383 97429,6917.922,95.438,540.497,539.077,0.0
53776.0,STARLINK-4708,PAYLOAD,2024-06-09 00:04:32,15.08829293,0.0001558,53.2157,266.4606,87.5144,272.6026,3.1122e-05,2.07e-06,0.0,0 STARLINK-4708,1 53776U 22111D   24161.00315138  .00000207  00000-0  31122-4 0  9992,2 53776  53.2157 266.4606 0001558  87.5144 272.6026 15.08829293 96390,6917.913,95.438,540.856,538.7,0.0
53776.0,STARLINK-4708,PAYLOAD,2024-06-09 11:12:14,15.08821083,0.0001153,53.2162,264.3794,88.0955,272.0169,0.00022787,3.339e-05,0.0,0 STARLINK-4708,1 53776U 22111D   24161.46683407  .00003339  00000-0  22787-3 0  9994,2 53776  53.2162 264.3794 0001153  88.0955 272.0169 15.08821083 97558,6917.938,95.439,540.601,539.006,0.0
53776.0,STARLINK-4708,PAYLOAD,2024-06-09 15:58:23,15.0883213,0.0001233,53.216,263.4872,86.1793,273.934,0.00011352,1.519e-05,0.0,0 STARLINK-4708,1 53776U 22111D   24161.66555239  .00001519  00000-0  11352-3 0  9991,2 53776  53.2160 263.4872 0001233  86.1793 273.9340 15.08832130 97580,6917.904,95.438,540.622,538.916,0.0
53776.0,STARLINK-4708,PAYLOAD,2024-06-10 12:38:24,15.08840281,0.0001077,53.2169,259.6217,79.2329,280.8784,0.00017434,2.488e-05,0.0,0 STARLINK-4708,1 53776U 22111D   24162.52667109  .00002488  00000-0  17434-3 0  9990,2 53776  53.2169 259.6217 0001077  79.2329 280.8784 15.08840281 96622,6917.88,95.438,540.49,538.999,0.0
53776.0,STARLINK-4708,PAYLOAD,2024-06-10 14:13:47,15.08841363,0.0001087,53.217,259.3244,78.7191,281.3924,0.00018451,2.65e-05,0.0,0 STARLINK-4708,1 53776U 22111D   24162.59291067  .00002650  00000-0  18451-3 0  9994,2 53776  53.2170 259.3244 0001087  78.7191 281.3924 15.08841363 97729,6917.876,95.437,540.493,538.989,0.0
53776.0,STARLINK-4708,PAYLOAD,2024-06-11 12:29:10,15.08855802,0.0001113,53.216,255.162,75.4799,284.6316,0.00026004,3.855e-05,0.0,0 STARLINK-4708,1 53776U 22111D   24163.52026258  .00003855  00000-0  26004-3 0  9997,2 53776  53.2160 255.1620 0001113  75.4799 284.6316 15.08855802 97867,6917.832,95.437,540.467,538.927,0.0
53776.0,STARLINK-4708,PAYLOAD,2024-06-12 05:58:24,15.08853696,0.000136,53.2164,251.8917,86.6237,273.4911,0.0001305,1.79e-05,0.0,0 STARLINK-4708,1 53776U 22111D   24164.24889829  .00001790  00000-0  13050-3 0  9991,2 53776  53.2164 251.8917 0001360  86.6237 273.4911 15.08853696 96885,6917.839,95.437,540.644,538.763,0.0
53776.0,STARLINK-4708,PAYLOAD,2024-06-12 12:19:57,15.08842988,0.0001202,53.2175,250.7024,77.9144,282.1983,9.4888e-06,-1.37e-06,0.0,0 STARLINK-4708,1 53776U 22111D   24164.51386426 -.00000137  00000-0  94888-5 0  9991,2 53776  53.2175 250.7024 0001202  77.9144 282.1983 15.08842988 96922,6917.871,95.437,540.568,538.905,0.0
53776.0,STARLINK-4708,PAYLOAD,2024-06-13 12:10:44,15.08844789,0.000127,53.2179,246.2408,86.5762,273.5375,-7.8781e-05,-1.542e-05,0.0,0 STARLINK-4708,1 53776U 22111D   24165.50745984 -.00001542  00000-0 -78781-4 0  9994,2 53776  53.2179 246.2408 0001270  86.5762 273.5375 15.08844789 98167,6917.866,95.437,540.609,538.852,0.0
53776.0,STARLINK-4708,PAYLOAD,2024-06-14 12:01:31,15.08836477,0.0001103,53.2168,241.7806,81.6241,278.4876,3.0396e-05,1.96e-06,0.0,0 STARLINK-4708,1 53776U 22111D   24166.50106050  .00000196  00000-0  30396-4 0  9992,2 53776  53.2168 241.7806 0001103  81.6241 278.4876 15.08836477 98312,6917.891,95.438,540.519,538.993,0.0
53776.0,STARLINK-4708,PAYLOAD,2024-06-14 15:12:17,15.08837105,0.000108,53.2166,241.1856,79.2229,280.8885,2.3441e-05,8.5e-07,0.0,0 STARLINK-4708,1 53776U 22111D   24166.63354048  .00000085  00000-0  23441-4 0  9998,2 53776  53.2166 241.1856 0001080  79.2229 280.8885 15.08837105 98330,6917.889,95.438,540.501,539.007,0.0
53776.0,STARLINK-4708,PAYLOAD,2024-06-15 11:52:18,15.08835956,0.0001092,53.2166,237.3198,78.183,281.9284,4.137e-05,3.71e-06,0.0,0 STARLINK-4708,1 53776U 22111D   24167.49466232  .00000371  00000-0  41370-4 0  9991,2 53776  53.2166 237.3198 0001092  78.1830 281.9284 15.08835956 98466,6917.893,95.438,540.513,539.002,0.0
53776.0,STARLINK-4708,PAYLOAD,2024-06-16 13:18:29,15.08837731,0.0001135,53.2165,232.5623,79.0156,281.0964,3.8702e-05,3.28e-06,0.0,0 STARLINK-4708,1 53776U 22111D   24168.55450343  .00000328  00000-0  38702-4 0  9992,2 53776  53.2165 232.5623 0001135  79.0156 281.0964 15.08837731 97530,6917.887,95.438,540.538,538.967,0.0
53776.0,STARLINK-4708,PAYLOAD,2024-06-16 21:15:24,15.08838276,0.0001136,53.2165,231.0754,78.1449,281.9671,4.3036e-05,3.97e-06,0.0,0 STARLINK-4708,1 53776U 22111D   24168.88570332  .00000397  00000-0  43036-4 0  9991,2 53776  53.2165 231.0754 0001136  78.1449 281.9671 15.08838276 98670,6917.886,95.438,540.537,538.965,0.0
53776.0,STARLINK-4708,PAYLOAD,2024-06-17 21:06:11,15.08839229,0.000116,53.2164,226.6152,78.3574,281.7548,3.1504e-05,2.14e-06,0.0,0 STARLINK-4708,1 53776U 22111D   24169.87930433  .00000214  00000-0  31504-4 0  9998,2 53776  53.2164 226.6152 0001160  78.3574 281.7548 15.08839229 97735,6917.883,95.438,540.55,538.945,0.0
53776.0,STARLINK-4708,PAYLOAD,2024-06-18 11:24:39,15.08843119,0.0001163,53.216,223.9385,79.1365,280.9758,6.5077e-05,7.48e-06,0.0,0 STARLINK-4708,1 53776U 22111D   24170.47546064  .00000748  00000-0  65077-4 0  9993,2 53776  53.2160 223.9385 0001163  79.1365 280.9758 15.08843119 98917,6917.871,95.437,540.54,538.931,0.0
53776.0,STARLINK-4708,PAYLOAD,2024-06-19 09:40:03,15.0884704,0.0001179,53.2163,219.775,80.5217,279.5908,0.00010135,1.326e-05,0.0,0 STARLINK-4708,1 53776U 22111D   24171.40281270  .00001326  00000-0  10135-3 0  9999,2 53776  53.2163 219.7750 0001179  80.5217 279.5908 15.08847040 97960,6917.859,95.437,540.539,538.908,0.0
53776.0,STARLINK-4708,PAYLOAD,2024-06-20 12:41:37,15.08835671,0.0001147,53.2165,214.7188,83.4232,276.6891,-8.7323e-05,-1.677e-05,0.0,0 STARLINK-4708,1 53776U 22111D   24172.52890375 -.00001677  00000-0 -87323-4 0  9990,2 53776  53.2165 214.7188 0001147  83.4232 276.6891 15.08835671 99223,6917.894,95.438,540.552,538.965,0.0
53776.0,STARLINK-4708,PAYLOAD,2024-06-21 09:21:38,15.08832735,0.0001127,53.2161,210.8551,78.0907,282.0211,-3.9634e-05,-9.18e-06,0.0,0 STARLINK-4708,1 53776U 22111D   24173.39002488 -.00000918  00000-0 -39634-4 0  9995,2 53776  53.2161 210.8551 0001127  78.0907 282.0211 15.08832735 99356,6917.903,95.438,540.547,538.988,0.0
53776.0,STARLINK-4708,PAYLOAD,2024-06-22 09:12:25,15.08830028,0.0001129,53.2159,206.3935,81.0025,279.1095,5.9913e-05,6.66e-06,0.0,0 STARLINK-4708,1 53776U 22111D   24174.38362712  .00000666  00000-0  59913-4 0  9994,2 53776  53.2159 206.3935 0001129  81.0025 279.1095 15.08830028 98412,6917.911,95.438,540.557,538.995,0.0
53776.0,STARLINK-4708,PAYLOAD,2024-06-23 07:27:49,15.08832837,0.0001119,53.2159,202.2299,82.897,277.2149,5.2604e-05,5.49e-06,0.0,0 STARLINK-4708,1 53776U 22111D   24175.31099044  .00000549  00000-0  52604-4 0  9993,2 53776  53.2159 202.2299 0001119  82.8970 277.2149 15.08832837 99642,6917.902,95.438,540.541,538.993,0.0
53776.0,STARLINK-4708,PAYLOAD,2024-06-24 05:43:13,15.0883716,0.0001126,53.2159,198.0668,83.9635,276.1485,4.1712e-05,3.76e-06,0.0,0 STARLINK-4708,1 53776U 22111D   24176.23835076  .00000376  00000-0  41712-4 0  9994,2 53776  53.2159 198.0668 0001126  83.9635 276.1485 15.08837160 98691,6917.889,95.438,540.533,538.975,0.0
53776.0,STARLINK-4708,PAYLOAD,2024-06-24 10:29:22,15.08838191,0.0001123,53.2157,197.1747,83.296,276.816,4.742e-05,4.67e-06,0.0,0 STARLINK-4708,1 53776U 22111D   24176.43707021  .00000467  00000-0  47420-4 0  9997,2 53776  53.2157 197.1747 0001123  83.2960 276.8160 15.08838191 99815,6917.886,95.438,540.528,538.974,0.0
53776.0,STARLINK-4708,PAYLOAD,2024-06-25 08:44:46,15.08837836,0.0001148,53.2157,193.0113,83.1985,276.9138,2.6537e-05,1.35e-06,0.0,0 STARLINK-4708,1 53776U 22111D   24177.36443216  .00000135  00000-0  26537-4 0  9991,2 53776  53.2157 193.0113 0001148  83.1985 276.9138 15.08837836 98865,6917.887,95.438,540.546,538.958,0.0
